{
  "type": "FeatureCollection",
  "name": "chakkittapara_wards",
  "crs": {
    "type": "name",
    "properties": {
      "name": "urn:ogc:def:crs:OGC:1.3:CRS84"
    }
  },
  "features": [
    {
      "type": "Feature",
      "properties": {
        "ward_number": "1",
        "ward_name": "Chakkittapara Town"
      },
      "geometry": {
        "type": "Polygon",
        "coordinates": [
          [
            [75.802, 11.575],
            [75.810, 11.583],
            [75.815, 11.578],
            [75.812, 11.570],
            [75.805, 11.568],
            [75.802, 11.575]
          ]
        ]
      }
    },
    {
      "type": "Feature",
      "properties": {
        "ward_number": "2",
        "ward_name": "Kulathuvayal"
      },
      "geometry": {
        "type": "Polygon",
        "coordinates": [
          [
            [75.815, 11.578],
            [75.810, 11.583],
            [75.818, 11.595],
            [75.828, 11.588],
            [75.820, 11.578],
            [75.815, 11.578]
          ]
        ]
      }
    },
    {
      "type": "Feature",
      "properties": {
        "ward_number": "3",
        "ward_name": "Peruvannamuzhi"
      },
      "geometry": {
        "type": "Polygon",
        "coordinates": [
          [
            [75.802, 11.575],
            [75.805, 11.568],
            [75.812, 11.570],
            [75.812, 11.558],
            [75.798, 11.560],
            [75.802, 11.575]
          ]
        ]
      }
    },
    {
      "type": "Feature",
      "properties": {
        "ward_number": "4",
        "ward_name": "Chembanoda"
      },
      "geometry": {
        "type": "Polygon",
        "coordinates": [
          [
            [75.810, 11.583],
            [75.802, 11.575],
            [75.798, 11.585],
            [75.808, 11.595],
            [75.810, 11.583]
          ]
        ]
      }
    },
    {
      "type": "Feature",
      "properties": {
        "ward_number": "5",
        "ward_name": "Muthukad"
      },
      "geometry": {
        "type": "Polygon",
        "coordinates": [
          [
            [75.812, 11.570],
            [75.820, 11.578],
            [75.828, 11.570],
            [75.825, 11.560],
            [75.812, 11.558],
            [75.812, 11.570]
          ]
        ]
      }
    },
    {
      "type": "Feature",
      "properties": {
        "ward_number": "6",
        "ward_name": "Kattippara Road"
      },
      "geometry": {
        "type": "Polygon",
        "coordinates": [
          [
            [75.820, 11.578],
            [75.828, 11.588],
            [75.835, 11.580],
            [75.828, 11.570],
            [75.820, 11.578]
          ]
        ]
      }
    }
  ]
}
