{
  "type": "FeatureCollection",
  "features": [
    {
      "type": "Feature",
      "properties": {
        "id": "G110706",
        "name": "Panangad Grama Panchayat",
        "district": "Kozhikode"
      },
      "geometry": {
        "type": "Polygon",
        "coordinates": [
          [
            [
              75.8569264,
              11.4767968
            ],
            [
              75.8557033,
              11.4760923
            ],
            [
              75.8548772,
              11.4759767
            ],
            [
              75.8541262,
              11.4757033
            ],
            [
              75.8532572,
              11.4755035
            ],
            [
              75.8528602,
              11.4757138
            ],
            [
              75.8526778,
              11.4762816
            ],
            [
              75.852195,
              11.4769755
            ],
            [
              75.8513582,
              11.4772804
            ],
            [
              75.8488154,
              11.4774907
            ],
            [
              75.8476138,
              11.477354
            ],
            [
              75.8471203,
              11.4764919
            ],
            [
              75.8472061,
              11.4751776
            ],
            [
              75.8468628,
              11.4745677
            ],
            [
              75.8461547,
              11.4747044
            ],
            [
              75.845747,
              11.4753773
            ],
            [
              75.8454788,
              11.4765234
            ],
            [
              75.8453393,
              11.4777115
            ],
            [
              75.8440733,
              11.4777746
            ],
            [
              75.8425927,
              11.477312
            ],
            [
              75.840168,
              11.4773751
            ],
            [
              75.8386874,
              11.478069
            ],
            [
              75.8377047,
              11.477809
            ],
            [
              75.8365417,
              11.4775013
            ],
            [
              75.8339882,
              11.4764288
            ],
            [
              75.8323574,
              11.4762606
            ],
            [
              75.8298898,
              11.4772699
            ],
            [
              75.8269929,
              11.4755245
            ],
            [
              75.8258188,
              11.4749236
            ],
            [
              75.8250618,
              11.4745362
            ],
            [
              75.8219075,
              11.4745362
            ],
            [
              75.8188605,
              11.4748096
            ],
            [
              75.8158779,
              11.4748937
            ],
            [
              75.8126592,
              11.4748096
            ],
            [
              75.8113932,
              11.4750199
            ],
            [
              75.8097839,
              11.4760082
            ],
            [
              75.8082604,
              11.4759451
            ],
            [
              75.8071446,
              11.4752301
            ],
            [
              75.8068477,
              11.4748718
            ],
            [
              75.805707,
              11.4734953
            ],
            [
              75.8036577,
              11.4728224
            ],
            [
              75.8023596,
              11.4716237
            ],
            [
              75.8006108,
              11.4712977
            ],
            [
              75.7968976,
              11.4669611
            ],
            [
              75.7962442,
              11.4661981
            ],
            [
              75.7988298,
              11.4659142
            ],
            [
              75.8010078,
              11.4644948
            ],
            [
              75.8030569,
              11.4635168
            ],
            [
              75.8048165,
              11.4632856
            ],
            [
              75.8058894,
              11.463233
            ],
            [
              75.806737,
              11.4629911
            ],
            [
              75.8068764,
              11.4622656
            ],
            [
              75.8072197,
              11.4610354
            ],
            [
              75.8084428,
              11.4606253
            ],
            [
              75.8091402,
              11.4602362
            ],
            [
              75.8096337,
              11.4591426
            ],
            [
              75.8107495,
              11.4585013
            ],
            [
              75.8121408,
              11.4587514
            ],
            [
              75.8132922,
              11.4588167
            ],
            [
              75.8154166,
              11.4584908
            ],
            [
              75.8163178,
              11.4585013
            ],
            [
              75.8189034,
              11.4585959
            ],
            [
              75.8205664,
              11.4586695
            ],
            [
              75.8211672,
              11.4584172
            ],
            [
              75.8214891,
              11.457923
            ],
            [
              75.8223903,
              11.4576285
            ],
            [
              75.8227444,
              11.4577652
            ],
            [
              75.823195,
              11.458312
            ],
            [
              75.8236027,
              11.4591006
            ],
            [
              75.8242571,
              11.4594161
            ],
            [
              75.8251369,
              11.4587957
            ],
            [
              75.8257592,
              11.4582699
            ],
            [
              75.825963,
              11.4574603
            ],
            [
              75.8260703,
              11.4563667
            ],
            [
              75.8276367,
              11.4563457
            ],
            [
              75.8287311,
              11.4556727
            ],
            [
              75.8290189,
              11.455316
            ],
            [
              75.8294606,
              11.4547684
            ],
            [
              75.8302867,
              11.4542322
            ],
            [
              75.8308661,
              11.4553678
            ],
            [
              75.8317459,
              11.455168
            ],
            [
              75.8325291,
              11.4545266
            ],
            [
              75.8331084,
              11.4538536
            ],
            [
              75.8332586,
              11.4532963
            ],
            [
              75.8327865,
              11.4524972
            ],
            [
              75.8327065,
              11.4521194
            ],
            [
              75.8324968,
              11.4511302
            ],
            [
              75.8329153,
              11.4493005
            ],
            [
              75.8335912,
              11.447639
            ],
            [
              75.833956,
              11.4461616
            ],
            [
              75.8360112,
              11.4456285
            ],
            [
              75.8361301,
              11.445145
            ],
            [
              75.8360557,
              11.4443248
            ],
            [
              75.8361286,
              11.4437536
            ],
            [
              75.8361629,
              11.4430088
            ],
            [
              75.836158,
              11.4423689
            ],
            [
              75.8361219,
              11.4395102
            ],
            [
              75.8404148,
              11.4401941
            ],
            [
              75.8432751,
              11.4405809
            ],
            [
              75.8448139,
              11.4406113
            ],
            [
              75.844985,
              11.4406147
            ],
            [
              75.846303,
              11.4406805
            ],
            [
              75.8482015,
              11.4405267
            ],
            [
              75.8496778,
              11.4407815
            ],
            [
              75.8513057,
              11.4413832
            ],
            [
              75.8523452,
              11.4414402
            ],
            [
              75.8531275,
              11.4415492
            ],
            [
              75.854892,
              11.4417533
            ],
            [
              75.8555999,
              11.4424247
            ],
            [
              75.8554423,
              11.4430314
            ],
            [
              75.8552608,
              11.4433513
            ],
            [
              75.8546777,
              11.4445243
            ],
            [
              75.854671,
              11.4449689
            ],
            [
              75.8546817,
              11.4451878
            ],
            [
              75.8552336,
              11.4456522
            ],
            [
              75.8561761,
              11.4455469
            ],
            [
              75.8573146,
              11.445555
            ],
            [
              75.8577714,
              11.4458754
            ],
            [
              75.8577647,
              11.4471943
            ],
            [
              75.8577509,
              11.447298
            ],
            [
              75.8577511,
              11.4474487
            ],
            [
              75.858158,
              11.448077
            ],
            [
              75.8583071,
              11.4487258
            ],
            [
              75.8583631,
              11.4489644
            ],
            [
              75.8583832,
              11.4497254
            ],
            [
              75.8583331,
              11.4499769
            ],
            [
              75.8585766,
              11.4506668
            ],
            [
              75.8586593,
              11.4509542
            ],
            [
              75.8592791,
              11.4528111
            ],
            [
              75.8599047,
              11.4541891
            ],
            [
              75.8603855,
              11.4554848
            ],
            [
              75.8605303,
              11.4558752
            ],
            [
              75.8606829,
              11.4565638
            ],
            [
              75.8611636,
              11.4579428
            ],
            [
              75.861629,
              11.4590909
            ],
            [
              75.8620944,
              11.4593188
            ],
            [
              75.8625674,
              11.4592388
            ],
            [
              75.8666949,
              11.4592893
            ],
            [
              75.8676256,
              11.459439
            ],
            [
              75.8683276,
              11.4592025
            ],
            [
              75.8689532,
              11.4594295
            ],
            [
              75.8705969,
              11.4597182
            ],
            [
              75.8710301,
              11.4596123
            ],
            [
              75.872247,
              11.4601712
            ],
            [
              75.8731758,
              11.4618453
            ],
            [
              75.8731758,
              11.4626883
            ],
            [
              75.8732521,
              11.4629182
            ],
            [
              75.8734886,
              11.4630708
            ],
            [
              75.8741905,
              11.4631423
            ],
            [
              75.8750002,
              11.4633759
            ],
            [
              75.87622,
              11.4625157
            ],
            [
              75.8766777,
              11.4620532
            ],
            [
              75.8783943,
              11.4605836
            ],
            [
              75.8793251,
              11.4601172
            ],
            [
              75.8798668,
              11.4601144
            ],
            [
              75.8804085,
              11.4597281
            ],
            [
              75.8807213,
              11.4594182
            ],
            [
              75.8810365,
              11.458587
            ],
            [
              75.8822093,
              11.4574302
            ],
            [
              75.8826747,
              11.457351
            ],
            [
              75.8829799,
              11.4575017
            ],
            [
              75.8833003,
              11.4582675
            ],
            [
              75.8837657,
              11.4583409
            ],
            [
              75.8839183,
              11.4584934
            ],
            [
              75.883842,
              11.4587242
            ],
            [
              75.8835292,
              11.4589559
            ],
            [
              75.8822932,
              11.460498
            ],
            [
              75.8821406,
              11.4611885
            ],
            [
              75.8822169,
              11.4614193
            ],
            [
              75.8826899,
              11.4628755
            ],
            [
              75.8831982,
              11.4634995
            ],
            [
              75.8838649,
              11.4642488
            ],
            [
              75.8843303,
              11.4643223
            ],
            [
              75.8847957,
              11.4643194
            ],
            [
              75.8864284,
              11.4638492
            ],
            [
              75.8869014,
              11.4639236
            ],
            [
              75.8873668,
              11.4635364
            ],
            [
              75.8878322,
              11.46338
            ],
            [
              75.8885494,
              11.4633542
            ],
            [
              75.8892468,
              11.4635535
            ],
            [
              75.8892017,
              11.4653799
            ],
            [
              75.8893041,
              11.4659364
            ],
            [
              75.8892962,
              11.4664899
            ],
            [
              75.8888237,
              11.4674929
            ],
            [
              75.8885222,
              11.4681929
            ],
            [
              75.8885924,
              11.4687178
            ],
            [
              75.8886809,
              11.4691201
            ],
            [
              75.8885969,
              11.4699496
            ],
            [
              75.8881581,
              11.470383
            ],
            [
              75.8870744,
              11.4713819
            ],
            [
              75.8871174,
              11.4727698
            ],
            [
              75.8872676,
              11.4752302
            ],
            [
              75.887568,
              11.476618
            ],
            [
              75.8878255,
              11.478048
            ],
            [
              75.8877826,
              11.478763
            ],
            [
              75.88804,
              11.4798985
            ],
            [
              75.8889627,
              11.480992
            ],
            [
              75.8899069,
              11.4816018
            ],
            [
              75.8914304,
              11.4820013
            ],
            [
              75.8926964,
              11.4819593
            ],
            [
              75.893898,
              11.4816228
            ],
            [
              75.8953786,
              11.4811812
            ],
            [
              75.8966446,
              11.4809289
            ],
            [
              75.8980822,
              11.4807817
            ],
            [
              75.8986294,
              11.4800037
            ],
            [
              75.899713,
              11.4791204
            ],
            [
              75.9015906,
              11.4784055
            ],
            [
              75.9028029,
              11.4807186
            ],
            [
              75.9026206,
              11.4825271
            ],
            [
              75.9039563,
              11.4831526
            ],
            [
              75.9057123,
              11.4828103
            ],
            [
              75.9073461,
              11.4847778
            ],
            [
              75.9079742,
              11.4855341
            ],
            [
              75.9086951,
              11.486947
            ],
            [
              75.9088325,
              11.4872163
            ],
            [
              75.9086394,
              11.4895293
            ],
            [
              75.9078074,
              11.4904659
            ],
            [
              75.9070515,
              11.4913167
            ],
            [
              75.9058499,
              11.4929779
            ],
            [
              75.9057047,
              11.4932107
            ],
            [
              75.9050774,
              11.4947442
            ],
            [
              75.9050534,
              11.4946712
            ],
            [
              75.9037041,
              11.496132
            ],
            [
              75.9016871,
              11.4968889
            ],
            [
              75.9004481,
              11.4972839
            ],
            [
              75.8999061,
              11.4974567
            ],
            [
              75.8987541,
              11.4982042
            ],
            [
              75.8973527,
              11.4993281
            ],
            [
              75.8968699,
              11.5010838
            ],
            [
              75.8966553,
              11.502072
            ],
            [
              75.8960223,
              11.5027134
            ],
            [
              75.8961081,
              11.5035334
            ],
            [
              75.8959043,
              11.5042273
            ],
            [
              75.8965158,
              11.5050263
            ],
            [
              75.8961618,
              11.5108716
            ],
            [
              75.8959257,
              11.5114393
            ],
            [
              75.8950459,
              11.5123119
            ],
            [
              75.8937048,
              11.5129637
            ],
            [
              75.8927071,
              11.5129427
            ],
            [
              75.8916985,
              11.5125747
            ],
            [
              75.8906149,
              11.5119545
            ],
            [
              75.8888761,
              11.5114913
            ],
            [
              75.8872997,
              11.5110714
            ],
            [
              75.8854973,
              11.5114919
            ],
            [
              75.8845961,
              11.5125432
            ],
            [
              75.8830297,
              11.513153
            ],
            [
              75.88171,
              11.5128376
            ],
            [
              75.880841,
              11.5120386
            ],
            [
              75.8804655,
              11.5109978
            ],
            [
              75.8796394,
              11.5100201
            ],
            [
              75.8787167,
              11.5095575
            ],
            [
              75.8774959,
              11.5094881
            ],
            [
              75.8770537,
              11.5094629
            ],
            [
              75.8753042,
              11.509416
            ],
            [
              75.8750903,
              11.5094103
            ],
            [
              75.8739638,
              11.5093157
            ],
            [
              75.8733003,
              11.5089862
            ],
            [
              75.872376,
              11.5085272
            ],
            [
              75.8716571,
              11.5077177
            ],
            [
              75.8716142,
              11.5067925
            ],
            [
              75.8707988,
              11.5044796
            ],
            [
              75.870316,
              11.5041958
            ],
            [
              75.8698654,
              11.5036175
            ],
            [
              75.8698869,
              11.5029447
            ],
            [
              75.869962,
              11.5021877
            ],
            [
              75.8700371,
              11.5015569
            ],
            [
              75.8697367,
              11.5011048
            ],
            [
              75.8692753,
              11.5006528
            ],
            [
              75.8692109,
              11.4994122
            ],
            [
              75.8691735,
              11.4991817
            ],
            [
              75.8690607,
              11.498487
            ],
            [
              75.8685887,
              11.497688
            ],
            [
              75.8683848,
              11.4970046
            ],
            [
              75.8680844,
              11.4963948
            ],
            [
              75.8674192,
              11.4959006
            ],
            [
              75.8664858,
              11.4959427
            ],
            [
              75.8654129,
              11.4959112
            ],
            [
              75.8649301,
              11.4957009
            ],
            [
              75.8644366,
              11.4952593
            ],
            [
              75.8642435,
              11.4948808
            ],
            [
              75.8627951,
              11.4944603
            ],
            [
              75.8624292,
              11.494338
            ],
            [
              75.861851,
              11.4941449
            ],
            [
              75.8614433,
              11.4932617
            ],
            [
              75.8609283,
              11.4922734
            ],
            [
              75.8603275,
              11.491527
            ],
            [
              75.8595872,
              11.4908436
            ],
            [
              75.8590615,
              11.4900445
            ],
            [
              75.8583641,
              11.4889616
            ],
            [
              75.858053,
              11.4882361
            ],
            [
              75.8577311,
              11.4872899
            ],
            [
              75.8576238,
              11.4863962
            ],
            [
              75.8572805,
              11.4850189
            ],
            [
              75.855521,
              11.4846246
            ],
            [
              75.8536863,
              11.4846246
            ],
            [
              75.8528602,
              11.4843986
            ],
            [
              75.8526671,
              11.4835837
            ],
            [
              75.8525115,
              11.4829108
            ],
            [
              75.8517927,
              11.4822011
            ],
            [
              75.8522862,
              11.4816649
            ],
            [
              75.8531767,
              11.481707
            ],
            [
              75.8540189,
              11.4817595
            ],
            [
              75.8546841,
              11.4811181
            ],
            [
              75.8551454,
              11.4808237
            ],
            [
              75.8556068,
              11.4799826
            ],
            [
              75.8564329,
              11.4794253
            ],
            [
              75.8569372,
              11.4788471
            ],
            [
              75.8573234,
              11.4782898
            ],
            [
              75.8573341,
              11.4775328
            ],
            [
              75.8569264,
              11.4767968
            ]
          ]
        ]
      }
    }
  ]
}